{"type": "FeatureCollection", "features": [ {"type": "Feature", "properties": {"norad_id": 34014, "name": "COSMOS 2251 DEB", "group": "cosmos-2251-debris", "lat": 12.702630924656276, "lon": -96.96567360821751, "alt_km": 627.1938258826876, "timestamp": "2025-12-23T16:57:12.748208+00:00", "meta": {"OBJECT_NAME": "COSMOS 2251 DEB", "OBJECT_ID": "1993-036GZ", "EPOCH": "2025-12-23T04:24:15.434208", "MEAN_MOTION": 14.73254198, "ECCENTRICITY": 0.00374882, "INCLINATION": 74.017, "RA_OF_ASC_NODE": 260.3499, "ARG_OF_PERICENTER": 37.0908, "MEAN_ANOMALY": 84.3191, "EPHEMERIS_TYPE": 0, "CLASSIFICATION_TYPE": "U", "NORAD_CAT_ID": 34014, "ELEMENT_SET_NO": 999, "REV_AT_EPOCH": 89457, "BSTAR": 0.00092045815, "MEAN_MOTION_DOT": 5.986e-05, "MEAN_MOTION_DDOT": 0}, "tle": {"line1": "1 34014U 93036GZ  25357.18351197  .00005986  00000+0  92046-3 0  9991", "line2": "2 34014  74.0170 260.3499 0037488  37.0908  84.3191 14.73254198894576"}}, "geometry": {"type": "Point", "coordinates": [-96.96567360821751, 12.702630924656276]}}, {"type": "Feature", "properties": {"norad_id": 34015, "name": "COSMOS 2251 DEB", "group": "cosmos-2251-debris", "lat": -17.517753736376264, "lon": 133.28542081153617, "alt_km": 700.8162253564506, "timestamp": "2025-12-23T16:57:12.748218+00:00", "meta": {"OBJECT_NAME": "COSMOS 2251 DEB", "OBJECT_ID": "1993-036HA", "EPOCH": "2025-12-22T20:12:20.020896", "MEAN_MOTION": 14.60369395, "ECCENTRICITY": 0.00209819, "INCLINATION": 74.0244, "RA_OF_ASC_NODE": 140.1244, "ARG_OF_PERICENTER": 236.9409, "MEAN_ANOMALY": 241.5911, "EPHEMERIS_TYPE": 0, "CLASSIFICATION_TYPE": "U", "NORAD_CAT_ID": 34015, "ELEMENT_SET_NO": 999, "REV_AT_EPOCH": 88678, "BSTAR": 0.0012041911, "MEAN_MOTION_DOT": 5.818e-05, "MEAN_MOTION_DDOT": 0}, "tle": {"line1": "1 34015U 93036HA  25356.84189839  .00005818  00000+0  12042-2 0  9997", "line2": "2 34015  74.0244 140.1244 0020981 236.9409 241.5911 14.60369395886781"}}, "geometry": {"type": "Point", "coordinates": [133.28542081153617, -17.517753736376264]}}, {"type": "Feature", "properties": {"norad_id": 34018, "name": "COSMOS 2251 DEB", "group": "cosmos-2251-debris", "lat": -57.02210693287077, "lon": -80.01647827258697, "alt_km": 1096.954493018502, "timestamp": "2025-12-23T16:57:12.748229+00:00", "meta": {"OBJECT_NAME": "COSMOS 2251 DEB", "OBJECT_ID": "1993-036HD", "EPOCH": "2025-12-23T05:32:46.161312", "MEAN_MOTION": 13.81083283, "ECCENTRICITY": 0.02631947, "INCLINATION": 73.878, "RA_OF_ASC_NODE": 74.3174, "ARG_OF_PERICENTER": 108.1903, "MEAN_ANOMALY": 288.0828, "EPHEMERIS_TYPE": 0, "CLASSIFICATION_TYPE": "U", "NORAD_CAT_ID": 34018, "ELEMENT_SET_NO": 999, "REV_AT_EPOCH": 84802, "BSTAR": 0.00034358477, "MEAN_MOTION_DOT": 4.51e-06, "MEAN_MOTION_DDOT": 0}, "tle": {"line1": "1 34018U 93036HD  25357.23108983  .00000451  00000+0  34358-3 0  9998", "line2": "2 34018  73.8780  74.3174 0263194 108.1903 288.0828 13.81083283848029"}}, "geometry": {"type": "Point", "coordinates": [-80.01647827258697, -57.02210693287077]}}, {"type": "Feature", "properties": {"norad_id": 34019, "name": "COSMOS 2251 DEB", "group": "cosmos-2251-debris", "lat": -64.40192922146089, "lon": -6.353772866253843, "alt_km": 777.413032987205, "timestamp": "2025-12-23T16:57:12.748239+00:00", "meta": {"OBJECT_NAME": "COSMOS 2251 DEB", "OBJECT_ID": "1993-036HE", "EPOCH": "2025-12-23T04:09:30.710304", "MEAN_MOTION": 14.33981618, "ECCENTRICITY": 0.00622914, "INCLINATION": 73.9532, "RA_OF_ASC_NODE": 31.5513, "ARG_OF_PERICENTER": 211.1848, "MEAN_ANOMALY": 207.2865, "EPHEMERIS_TYPE": 0, "CLASSIFICATION_TYPE": "U", "NORAD_CAT_ID": 34019, "ELEMENT_SET_NO": 999, "REV_AT_EPOCH": 87670, "BSTAR": 0.00068635836, "MEAN_MOTION_DOT": 1.931e-05, "MEAN_MOTION_DDOT": 0}, "tle": {"line1": "1 34019U 93036HE  25357.17327211  .00001931  00000+0  68636-3 0  9999", "line2": "2 34019  73.9532  31.5513 0062291 211.1848 207.2865 14.33981618876703"}}, "geometry": {"type": "Point", "coordinates": [-6.353772866253843, -64.40192922146089]}}, {"type": "Feature", "properties": {"norad_id": 34021, "name": "COSMOS 2251 DEB", "group": "cosmos-2251-debris", "lat": -56.37650817345527, "lon": 83.74071510493076, "alt_km": 722.3999382425218, "timestamp": "2025-12-23T16:57:12.748250+00:00", "meta": {"OBJECT_NAME": "COSMOS 2251 DEB", "OBJECT_ID": "1993-036HG", "EPOCH": "2025-12-23T01:28:05.125152", "MEAN_MOTION": 14.49983288, "ECCENTRICITY": 0.00209765, "INCLINATION": 74.036, "RA_OF_ASC_NODE": 110.4487, "ARG_OF_PERICENTER": 253.5274, "MEAN_ANOMALY": 279.6674, "EPHEMERIS_TYPE": 0, "CLASSIFICATION_TYPE": "U", "NORAD_CAT_ID": 34021, "ELEMENT_SET_NO": 999, "REV_AT_EPOCH": 88779, "BSTAR": 0.00044220159, "MEAN_MOTION_DOT": 1.689e-05, "MEAN_MOTION_DDOT": 0}, "tle": {"line1": "1 34021U 93036HG  25357.06117043  .00001689  00000+0  44220-3 0  9993", "line2": "2 34021  74.0360 110.4487 0020976 253.5274 279.6674 14.49983288887795"}}, "geometry": {"type": "Point", "coordinates": [83.74071510493076, -56.37650817345527]}}, {"type": "Feature", "properties": {"norad_id": 34022, "name": "COSMOS 2251 DEB", "group": "cosmos-2251-debris", "lat": 40.59786170256085, "lon": -95.22696017168391, "alt_km": 757.9897067620395, "timestamp": "2025-12-23T16:57:12.748260+00:00", "meta": {"OBJECT_NAME": "COSMOS 2251 DEB", "OBJECT_ID": "1993-036HH", "EPOCH": "2025-12-22T17:29:14.286912", "MEAN_MOTION": 14.38976963, "ECCENTRICITY": 0.00230176, "INCLINATION": 74.0539, "RA_OF_ASC_NODE": 252.3899, "ARG_OF_PERICENTER": 315.7419, "MEAN_ANOMALY": 63.6061, "EPHEMERIS_TYPE": 0, "CLASSIFICATION_TYPE": "U", "NORAD_CAT_ID": 34022, "ELEMENT_SET_NO": 999, "REV_AT_EPOCH": 88339, "BSTAR": 0.00018174649, "MEAN_MOTION_DOT": 5.36e-06, "MEAN_MOTION_DDOT": 0}, "tle": {"line1": "1 34022U 93036HH  25356.72863758  .00000536  00000+0  18175-3 0  9997", "line2": "2 34022  74.0539 252.3899 0023017 315.7419  63.6061 14.38976963883391"}}, "geometry": {"type": "Point", "coordinates": [-95.22696017168391, 40.59786170256085]}}, {"type": "Feature", "properties": {"norad_id": 34023, "name": "COSMOS 2251 DEB", "group": "cosmos-2251-debris", "lat": 24.068893141878824, "lon": -121.1998513540674, "alt_km": 748.8350606593394, "timestamp": "2025-12-23T16:57:12.748270+00:00", "meta": {"OBJECT_NAME": "COSMOS 2251 DEB", "OBJECT_ID": "1993-036HJ", "EPOCH": "2025-12-23T02:23:26.644416", "MEAN_MOTION": 14.40580637, "ECCENTRICITY": 0.00188454, "INCLINATION": 74.0241, "RA_OF_ASC_NODE": 232.571, "ARG_OF_PERICENTER": 326.7296, "MEAN_ANOMALY": 152.7209, "EPHEMERIS_TYPE": 0, "CLASSIFICATION_TYPE": "U", "NORAD_CAT_ID": 34023, "ELEMENT_SET_NO": 999, "REV_AT_EPOCH": 88363, "BSTAR": 0.0002558496, "MEAN_MOTION_DOT": 7.9e-06, "MEAN_MOTION_DDOT": 0}, "tle": {"line1": "1 34023U 93036HJ  25357.09961394  .00000790  00000+0  25585-3 0  9999", "line2": "2 34023  74.0241 232.5710 0018845 326.7296 152.7209 14.40580637883635"}}, "geometry": {"type": "Point", "coordinates": [-121.1998513540674, 24.068893141878824]}}, {"type": "Feature", "properties": {"norad_id": 34024, "name": "COSMOS 2251 DEB", "group": "cosmos-2251-debris", "lat": -10.11424041785522, "lon": 118.81781663355487, "alt_km": 791.3492874447602, "timestamp": "2025-12-23T16:57:12.748281+00:00", "meta": {"OBJECT_NAME": "COSMOS 2251 DEB", "OBJECT_ID": "1993-036HK", "EPOCH": "2025-12-23T06:45:38.848896", "MEAN_MOTION": 14.35407339, "ECCENTRICITY": 0.0021517, "INCLINATION": 74.0471, "RA_OF_ASC_NODE": 296.6711, "ARG_OF_PERICENTER": 345.1266, "MEAN_ANOMALY": 171.6617, "EPHEMERIS_TYPE": 0, "CLASSIFICATION_TYPE": "U", "NORAD_CAT_ID": 34024, "ELEMENT_SET_NO": 999, "REV_AT_EPOCH": 88175, "BSTAR": 0.00017585978, "MEAN_MOTION_DOT": 4.8e-06, "MEAN_MOTION_DDOT": 0}, "tle": {"line1": "1 34024U 93036HK  25357.28169964  .00000480  00000+0  17586-3 0  9992", "line2": "2 34024  74.0471 296.6711 0021517 345.1266 171.6617 14.35407339881750"}}, "geometry": {"type": "Point", "coordinates": [118.81781663355487, -10.11424041785522]}}, {"type": "Feature", "properties": {"norad_id": 34026, "name": "COSMOS 2251 DEB", "group": "cosmos-2251-debris", "lat": -12.911573248782, "lon": 142.87847123133497, "alt_km": 763.120105080603, "timestamp": "2025-12-23T16:57:12.748291+00:00", "meta": {"OBJECT_NAME": "COSMOS 2251 DEB", "OBJECT_ID": "1993-036HM", "EPOCH": "2025-12-23T03:47:47.833728", "MEAN_MOTION": 13.65321213, "ECCENTRICITY": 0.03497124, "INCLINATION": 73.7669, "RA_OF_ASC_NODE": 319.9603, "ARG_OF_PERICENTER": 188.3805, "MEAN_ANOMALY": 191.0411, "EPHEMERIS_TYPE": 0, "CLASSIFICATION_TYPE": "U", "NORAD_CAT_ID": 34026, "ELEMENT_SET_NO": 999, "REV_AT_EPOCH": 83674, "BSTAR": 0.00042589628, "MEAN_MOTION_DOT": 5.03e-06, "MEAN_MOTION_DDOT": 0}, "tle": {"line1": "1 34026U 93036HM  25357.15819252  .00000503  00000+0  42590-3 0  9991", "line2": "2 34026  73.7669 319.9603 0349712 188.3805 191.0411 13.65321213836747"}}, "geometry": {"type": "Point", "coordinates": [142.87847123133497, -12.911573248782]}}, {"type": "Feature", "properties": {"norad_id": 34028, "name": "COSMOS 2251 DEB", "group": "cosmos-2251-debris", "lat": -64.40163598209188, "lon": -172.44425611189976, "alt_km": 1510.8278671358266, "timestamp": "2025-12-23T16:57:12.748303+00:00", "meta": {"OBJECT_NAME": "COSMOS 2251 DEB", "OBJECT_ID": "1993-036HP", "EPOCH": "2025-12-23T04:57:04.730400", "MEAN_MOTION": 13.20631621, "ECCENTRICITY": 0.05434919, "INCLINATION": 73.8837, "RA_OF_ASC_NODE": 331.2036, "ARG_OF_PERICENTER": 107.2506, "MEAN_ANOMALY": 281.9915, "EPHEMERIS_TYPE": 0, "CLASSIFICATION_TYPE": "U", "NORAD_CAT_ID": 34028, "ELEMENT_SET_NO": 999, "REV_AT_EPOCH": 81146, "BSTAR": 0.00043983086, "MEAN_MOTION_DOT": 3.72e-06, "MEAN_MOTION_DDOT": 0}, "tle": {"line1": "1 34028U 93036HP  25357.20630475  .00000372  00000+0  43983-3 0  9998", "line2": "2 34028  73.8837 331.2036 0543491 107.2506 281.9915 13.20631621811460"}}, "geometry": {"type": "Point", "coordinates": [-172.44425611189976, -64.40163598209188]}}]}